[{"OBJECT_NAME":"STARLINK-6225","OBJECT_ID":"2023-088AW","EPOCH":"2026-03-09T22:00:01.999584","MEAN_MOTION":15.09115885,"ECCENTRICITY":0.00012797,"INCLINATION":43.0006,"RA_OF_ASC_NODE":92.9772,"ARG_OF_PERICENTER":300.4032,"MEAN_ANOMALY":173.2398,"EPHEMERIS_TYPE":0,"CLASSIFICATION_TYPE":"U","NORAD_CAT_ID":57092,"ELEMENT_SET_NO":999,"REV_AT_EPOCH":578,"BSTAR":0.0035676543,"MEAN_MOTION_DOT":0.0005781,"MEAN_MOTION_DDOT":0},{"OBJECT_NAME":"FENGYUN 1C DEB","OBJECT_ID":"1999-025AEH","EPOCH":"2026-03-09T22:48:21.206880","MEAN_MOTION":14.8573293,"ECCENTRICITY":0.01077809,"INCLINATION":98.8499,"RA_OF_ASC_NODE":243.2798,"ARG_OF_PERICENTER":197.684,"MEAN_ANOMALY":322.9923,"EPHEMERIS_TYPE":0,"CLASSIFICATION_TYPE":"U","NORAD_CAT_ID":30418,"ELEMENT_SET_NO":999,"REV_AT_EPOCH":1886,"BSTAR":0.0011748472,"MEAN_MOTION_DOT":0.00011272,"MEAN_MOTION_DDOT":0}]
